FENGYUN 1C DEB          
1 30928U 99025AZS 17344.87344703  .00000324  00000-0  53366-3 0  9997
2 30928  98.8753 118.5086 0464416 281.5831 239.2568 13.17699282518496
